CCSDS_OMM_VERS,COMMENT,CREATION_DATE,ORIGINATOR,OBJECT_NAME,OBJECT_ID,CENTER_NAME,REF_FRAME,TIME_SYSTEM,MEAN_ELEMENT_THEORY,EPOCH,MEAN_MOTION,ECCENTRICITY,INCLINATION,RA_OF_ASC_NODE,ARG_OF_PERICENTER,MEAN_ANOMALY,EPHEMERIS_TYPE,CLASSIFICATION_TYPE,NORAD_CAT_ID,ELEMENT_SET_NO,REV_AT_EPOCH,BSTAR,MEAN_MOTION_DOT,MEAN_MOTION_DDOT,SEMIMAJOR_AXIS,PERIOD,APOAPSIS,PERIAPSIS,OBJECT_TYPE,RCS_SIZE,COUNTRY_CODE,LAUNCH_DATE,SITE,DECAY_DATE,FILE,GP_ID,TLE_LINE0,TLE_LINE1,TLE_LINE2
2,GENERATED VIA SPACE-TRACK.ORG API,2018-01-25T22:52:07,18 SPCS,SKYNET 4D,1998-002A,EARTH,TEME,UTC,SGP4,2018-01-25T16:17:53.619648,0.99155385,9.47e-05,10.7349,29.6186,248.9145,101.2982,0,U,25134,999,7305,0.0,-1.22e-06,0,42480.632,1452.266,36106.52,36098.474,PAYLOAD,LARGE,UK,1998-01-10,AFETR,,2239562,117422872,0 SKYNET 4D,1 25134U 98002A   18025.67909282 -.00000122  00000-0  00000+0 0  9998,2 25134  10.7349  29.6186 0000947 248.9145 101.2982  0.99155385 73059
2,GENERATED VIA SPACE-TRACK.ORG API,2018-01-26T22:45:52,18 SPCS,SKYNET 4D,1998-002A,EARTH,TEME,UTC,SGP4,2018-01-26T04:42:12.639168,0.9915555,9.18e-05,10.7354,29.6146,249.695,285.0319,0,U,25134,999,7299,0.0,-1.36e-06,0,42480.585,1452.263,36106.349,36098.55,PAYLOAD,LARGE,UK,1998-01-10,AFETR,,2239930,117452475,0 SKYNET 4D,1 25134U 98002A   18026.19597962 -.00000136 +00000-0 +00000-0 0  9990,2 25134 010.7354 029.6146 0000918 249.6950 285.0319 00.99155550072992
2,GENERATED VIA SPACE-TRACK.ORG API,2018-01-27T23:37:37,18 SPCS,SKYNET 4D,1998-002A,EARTH,TEME,UTC,SGP4,2018-01-27T03:33:38.761056,0.99155793,9e-05,10.7362,29.6071,250.1002,264.602,0,U,25134,999,7300,0.0,-1.59e-06,0,42480.515,1452.26,36106.203,36098.557,PAYLOAD,LARGE,UK,1998-01-10,AFETR,,2240352,117477788,0 SKYNET 4D,1 25134U 98002A   18027.14836529 -.00000159 +00000-0 +00000-0 0  9996,2 25134 010.7362 029.6071 0000900 250.1002 264.6020 00.99155793073008
2,GENERATED VIA SPACE-TRACK.ORG API,2018-01-28T14:56:42,18 SPCS,SKYNET 4D,1998-002A,EARTH,TEME,UTC,SGP4,2018-01-28T03:24:52.305984,0.99156,8.77e-05,10.737,29.5993,251.3625,258.1382,0,U,25134,999,7307,0.0,-1.83e-06,0,42480.456,1452.257,36106.047,36098.596,PAYLOAD,LARGE,UK,1998-01-10,AFETR,,2240557,117494389,0 SKYNET 4D,1 25134U 98002A   18028.14227206 -.00000183  00000-0  00000+0 0  9999,2 25134  10.7370  29.5993 0000877 251.3625 258.1382  0.99156000 73074
2,GENERATED VIA SPACE-TRACK.ORG API,2018-01-30T14:59:01,18 SPCS,SKYNET 4D,1998-002A,EARTH,TEME,UTC,SGP4,2018-01-30T05:47:59.830944,0.99156237,8.59e-05,10.7389,29.5828,251.2204,287.71,0,U,25134,999,7309,0.0,-2.27e-06,0,42480.388,1452.253,36105.902,36098.604,PAYLOAD,LARGE,UK,1998-01-10,AFETR,,2241400,117543949,0 SKYNET 4D,1 25134U 98002A   18030.24166471 -.00000227  00000-0  00000+0 0  9998,2 25134  10.7389  29.5828 0000859 251.2204 287.7100  0.99156237 73093
2,GENERATED VIA SPACE-TRACK.ORG API,2018-01-31T22:37:23,18 SPCS,SKYNET 4D,1998-002A,EARTH,TEME,UTC,SGP4,2018-01-31T06:07:02.013888,0.99156252,8.54e-05,10.7398,29.5748,252.0071,288.6172,0,U,25134,999,7304,0.0,-2.44e-06,0,42480.384,1452.253,36105.877,36098.621,PAYLOAD,LARGE,UK,1998-01-10,AFETR,,2241879,117574621,0 SKYNET 4D,1 25134U 98002A   18031.25488442 -.00000244 +00000-0 +00000-0 0  9995,2 25134 010.7398 029.5748 0000854 252.0071 288.6172 00.99156252073041
2,GENERATED VIA SPACE-TRACK.ORG API,2018-02-01T22:20:54,18 SPCS,SKYNET 4D,1998-002A,EARTH,TEME,UTC,SGP4,2018-02-01T06:38:43.011744,0.99156199,8.54e-05,10.7407,29.5668,253.1403,292.3127,0,U,25134,999,7311,0.0,-2.58e-06,0,42480.399,1452.254,36105.892,36098.636,PAYLOAD,LARGE,UK,1998-01-10,AFETR,,2242279,117592797,0 SKYNET 4D,1 25134U 98002A   18032.27688671 -.00000258  00000-0  00000+0 0  9998,2 25134  10.7407  29.5668 0000854 253.1403 292.3127  0.99156199 73114
2,GENERATED VIA SPACE-TRACK.ORG API,2018-02-01T22:39:59,18 SPCS,SKYNET 4D,1998-002A,EARTH,TEME,UTC,SGP4,2018-02-01T06:38:43.011744,0.99156199,8.54e-05,10.7407,29.5668,253.1403,292.3127,0,U,25134,999,7305,0.0,-2.58e-06,0,42480.399,1452.254,36105.892,36098.636,PAYLOAD,LARGE,UK,1998-01-10,AFETR,,2242302,117598781,0 SKYNET 4D,1 25134U 98002A   18032.27688671 -.00000258 +00000-0 +00000-0 0  9999,2 25134 010.7407 029.5668 0000854 253.1403 292.3127 00.99156199073057
2,GENERATED VIA SPACE-TRACK.ORG API,2018-02-03T06:06:34,18 SPCS,SKYNET 4D,1998-002A,EARTH,TEME,UTC,SGP4,2018-02-02T06:14:42.594144,0.99156093,8.48e-05,10.7415,29.5592,255.4343,281.0417,0,U,25134,999,7306,0.0,-2.68e-06,0,42480.429,1452.255,36105.897,36098.692,PAYLOAD,LARGE,UK,1998-01-10,AFETR,,2242800,117625438,0 SKYNET 4D,1 25134U 98002A   18033.26021521 -.00000268 +00000-0 +00000-0 0  9995,2 25134 010.7415 029.5592 0000848 255.4343 281.0417 00.99156093073064
2,GENERATED VIA SPACE-TRACK.ORG API,2018-02-04T05:44:24,18 SPCS,SKYNET 4D,1998-002A,EARTH,TEME,UTC,SGP4,2018-02-03T06:38:39.848640,0.99155938,8.49e-05,10.7424,29.5512,257.233,282.1553,0,U,25134,999,7307,0.0,-2.75e-06,0,42480.474,1452.257,36105.945,36098.732,PAYLOAD,LARGE,UK,1998-01-10,AFETR,,2243275,117650438,0 SKYNET 4D,1 25134U 98002A   18034.27685010 -.00000275 +00000-0 +00000-0 0  9994,2 25134 010.7424 029.5512 0000849 257.2330 282.1553 00.99155938073074
2,GENERATED VIA SPACE-TRACK.ORG API,2018-02-04T15:01:13,18 SPCS,SKYNET 4D,1998-002A,EARTH,TEME,UTC,SGP4,2018-02-04T07:18:39.720096,0.99155752,8.54e-05,10.7433,29.5432,259.0469,287.231,0,U,25134,999,7314,0.0,-2.78e-06,0,42480.527,1452.26,36106.02,36098.764,PAYLOAD,LARGE,UK,1998-01-10,AFETR,,2243523,117667812,0 SKYNET 4D,1 25134U 98002A   18035.30462639 -.00000278  00000-0  00000+0 0  9991,2 25134  10.7433  29.5432 0000854 259.0469 287.2310  0.99155752 73143
2,GENERATED VIA SPACE-TRACK.ORG API,2018-02-05T23:22:11,18 SPCS,SKYNET 4D,1998-002A,EARTH,TEME,UTC,SGP4,2018-02-05T07:20:13.863264,0.99155486,8.6e-05,10.7442,29.5355,261.1202,282.5182,0,U,25134,999,7309,0.0,-2.77e-06,0,42480.603,1452.264,36106.121,36098.815,PAYLOAD,LARGE,UK,1998-01-10,AFETR,,2244074,117701731,0 SKYNET 4D,1 25134U 98002A   18036.30571601 -.00000277 +00000-0 +00000-0 0  9992,2 25134 010.7442 029.5355 0000860 261.1202 282.5182 00.99155486073096
2,GENERATED VIA SPACE-TRACK.ORG API,2018-02-06T23:02:41,18 SPCS,SKYNET 4D,1998-002A,EARTH,TEME,UTC,SGP4,2018-02-06T07:13:39.672768,0.991552,8.62e-05,10.7451,29.5278,263.6265,275.3546,0,U,25134,999,7310,0.0,-2.74e-06,0,42480.685,1452.268,36106.211,36098.888,PAYLOAD,LARGE,UK,1998-01-10,AFETR,,2244486,117726793,0 SKYNET 4D,1 25134U 98002A   18037.30115362 -.00000274 +00000-0 +00000-0 0  9998,2 25134 010.7451 029.5278 0000862 263.6265 275.3546 00.99155200073108
2,GENERATED VIA SPACE-TRACK.ORG API,2018-02-08T07:10:01,18 SPCS,SKYNET 4D,1998-002A,EARTH,TEME,UTC,SGP4,2018-02-08T04:37:58.872000,0.99154565,8.79e-05,10.7468,29.5132,267.9016,226.4257,0,U,25134,999,7318,0.0,-2.6e-06,0,42480.866,1452.278,36106.465,36098.997,PAYLOAD,LARGE,UK,1998-01-10,AFETR,,2245035,117767050,0 SKYNET 4D,1 25134U 98002A   18039.19304250 -.00000260  00000-0  00000+0 0  9997,2 25134  10.7468  29.5132 0000879 267.9016 226.4257  0.99154565 73181
2,GENERATED VIA SPACE-TRACK.ORG API,2018-02-09T00:37:29,18 SPCS,SKYNET 4D,1998-002A,EARTH,TEME,UTC,SGP4,2018-02-08T08:40:39.814752,0.9915449,8.83e-05,10.747,29.5119,268.3929,286.0935,0,U,25134,999,7312,0.0,-2.58e-06,0,42480.887,1452.279,36106.503,36099.001,PAYLOAD,LARGE,UK,1998-01-10,AFETR,,2245353,117778552,0 SKYNET 4D,1 25134U 98002A   18039.36157193 -.00000258 +00000-0 +00000-0 0  9996,2 25134 010.7470 029.5119 0000883 268.3929 286.0935 00.99154490073128
2,GENERATED VIA SPACE-TRACK.ORG API,2018-02-09T22:33:46,18 SPCS,SKYNET 4D,1998-002A,EARTH,TEME,UTC,SGP4,2018-02-09T08:57:55.724832,0.99154118,8.81e-05,10.7478,29.5043,271.1696,284.5637,0,U,25134,999,7313,0.0,-2.46e-06,0,42480.994,1452.284,36106.601,36099.116,PAYLOAD,LARGE,UK,1998-01-10,AFETR,,2245667,117794896,0 SKYNET 4D,1 25134U 98002A   18040.37356163 -.00000246 +00000-0 +00000-0 0  9994,2 25134 010.7478 029.5043 0000881 271.1696 284.5637 00.99154118073133
2,GENERATED VIA SPACE-TRACK.ORG API,2018-02-11T06:46:18,18 SPCS,SKYNET 4D,1998-002A,EARTH,TEME,UTC,SGP4,2018-02-10T05:48:11.317824,0.99153788,8.86e-05,10.7486,29.4977,272.9075,232.7561,0,U,25134,999,7320,0.0,-2.34e-06,0,42481.088,1452.289,36106.717,36099.189,PAYLOAD,LARGE,UK,1998-01-10,AFETR,,2246141,117830201,0 SKYNET 4D,1 25134U 98002A   18041.24179766 -.00000234 +00000-0 +00000-0 0  9990,2 25134 010.7486 029.4977 0000886 272.9075 232.7561 00.99153788073203
2,GENERATED VIA SPACE-TRACK.ORG API,2018-02-12T06:31:03,18 SPCS,SKYNET 4D,1998-002A,EARTH,TEME,UTC,SGP4,2018-02-11T20:15:42.479424,0.99153212,8.87e-05,10.75,29.4853,278.8891,78.791,0,U,25134,999,7315,0.0,-2.09e-06,0,42481.252,1452.297,36106.885,36099.349,PAYLOAD,LARGE,UK,1998-01-10,AFETR,,2246497,117854560,0 SKYNET 4D,1 25134U 98002A   18042.84424166 -.00000209 +00000-0 +00000-0 0  9996,2 25134 010.7500 029.4853 0000887 278.8891 078.7910 00.99153212073157
2,GENERATED VIA SPACE-TRACK.ORG API,2018-02-12T15:05:41,18 SPCS,SKYNET 4D,1998-002A,EARTH,TEME,UTC,SGP4,2018-02-12T08:31:11.546400,0.9915303,8.89e-05,10.7505,29.4814,280.7627,259.2376,0,U,25134,999,7322,0.0,-2e-06,0,42481.304,1452.3,36106.946,36099.393,PAYLOAD,LARGE,UK,1998-01-10,AFETR,,2246631,117861566,0 SKYNET 4D,1 25134U 98002A   18043.35499475 -.00000200  00000-0  00000+0 0  9998,2 25134  10.7505  29.4814 0000889 280.7627 259.2376  0.99153030 73228
2,GENERATED VIA SPACE-TRACK.ORG API,2018-02-14T05:38:18,18 SPCS,SKYNET 4D,1998-002A,EARTH,TEME,UTC,SGP4,2018-02-13T08:30:42.605856,0.99152638,8.78e-05,10.7514,29.4738,284.163,252.6783,0,U,25134,999,7317,0.0,-1.81e-06,0,42481.416,1452.306,36107.011,36099.551,PAYLOAD,LARGE,UK,1998-01-10,AFETR,,2247207,117894853,0 SKYNET 4D,1 25134U 98002A   18044.35465979 -.00000181 +00000-0 +00000-0 0  9990,2 25134 010.7514 029.4738 0000878 284.1630 252.6783 00.99152638073179
